{"spkid": "20153311", "covariance": {"elements": [{"sigma": 8.60032360407474e-08, "name": "e", "title": "eccentricity", "value": ".646006612819656", "units": null, "label": "e"}, {"label": "q", "name": "q", "sigma": 2.14506843825962e-07, "title": "perihelion distance", "value": ".8848978235823147", "units": "au"}, {"units": "TDB", "title": "time of perihelion passage", "value": "2459379.549480131713", "name": "tp", "sigma": 8.7519227937598e-05, "label": "tp"}, {"label": "node", "title": "longitude of the ascending node", "value": "142.3705852601547", "units": "deg", "sigma": 1.89653944499257e-05, "name": "om"}, {"sigma": 2.79304023848168e-05, "name": "w", "title": "argument of perihelion", "value": "218.4552153300102", "units": "deg", "label": "peri"}, {"label": "i", "name": "i", "sigma": 3.4509648443535e-05, "title": "inclination", "value": "28.42475442923888", "units": "deg"}], "data": [["7.396556609480505E-15", "-1.843796121255253E-14", "1.687395917909181E-13", "3.956330277940872E-13", "-1.139858337932732E-12", "-1.081727971614347E-12"], ["-1.843796121255253E-14", "4.601318604817549E-14", "1.940231341133424E-13", "-1.024331645863543E-12", "2.97822193486998E-12", "2.741955427598822E-12"], ["1.687395917909181E-13", "1.940231341133424E-13", "7.659615258793244E-9", "-3.282510170102351E-10", "1.555169108771129E-9", "2.234957363800492E-10"], ["3.956330277940872E-13", "-1.024331645863543E-12", "-3.282510170102351E-10", "3.596861866412714E-10", "-4.169901346079867E-10", "-5.411772906156833E-10"], ["-1.139858337932732E-12", "2.97822193486998E-12", "1.555169108771129E-9", "-4.169901346079867E-10", "7.801073773777785E-10", "6.422016454659991E-10"], ["-1.081727971614347E-12", "2.741955427598822E-12", "2.234957363800492E-10", "-5.411772906156833E-10", "6.422016454659991E-10", "1.190915835696376E-9"]], "labels": ["e", "q", "tp", "node", "peri", "i"], "epoch": "2458811.5"}, "elements": [{"units": null, "value": ".6462793520824041", "title": "eccentricity", "name": "e", "sigma": "8.5948E-8", "label": "e"}, {"label": "a", "sigma": "2.0465E-8", "name": "a", "title": "semi-major axis", "value": "2.501241968927172", "units": "au"}, {"label": "q", "value": ".8847409298476027", "title": "perihelion distance", "units": "au", "name": "q", "sigma": "2.1447E-7"}, {"units": "deg", "value": "28.42255434302765", "title": "inclination; angle with respect to x-y ecliptic plane", "name": "i", "sigma": "3.4497E-5", "label": "i"}, {"label": "node", "units": "deg", "value": "142.3197509356095", "title": "longitude of the ascending node", "name": "om", "sigma": "1.8968E-5"}, {"value": "218.4997980294455", "title": "argument of perihelion", "units": "deg", "sigma": "2.7925E-5", "name": "w", "label": "peri"}, {"units": "deg", "title": "mean anomaly", "value": "93.58859672852205", "name": "ma", "sigma": "2.7239E-5", "label": "M"}, {"sigma": ".00010479", "name": "tp", "title": "time of perihelion passage", "value": "2460824.876787718291", "units": "TDB", "label": "tp"}, {"sigma": "1.7733E-5", "name": "per", "units": "d", "title": "sidereal orbital period", "value": "1444.880692181638", "label": "period"}, {"label": "n", "units": "deg/d", "value": ".249155519862635", "title": "mean motion", "name": "n", "sigma": "3.0579E-9"}, {"name": "ad", "sigma": "3.3691E-8", "value": "4.117743008006741", "title": "aphelion distance", "units": "au", "label": "Q"}], "epoch": "2461200.5"}